start=new Date('2022-05-14T00:00:00.000Z').valueOf();
sats=[{"ARG_OF_PERICENTER":"72.2755","TLE_LINE1":"1 48430U 21040C   22133.91667824  .00050834  00000-0  34111-2 0  9992","EPHEMERIS_TYPE":"0","FILE":"3444395","APOAPSIS":"548.293","RA_OF_ASC_NODE":"302.4937","REF_FRAME":"TEME","TIME_SYSTEM":"UTC","LAUNCH_DATE":"2021-05-09","MEAN_ELEMENT_THEORY":"SGP4","MEAN_MOTION_DOT":"0.00050834","CENTER_NAME":"EARTH","TLE_LINE2":"2 48430  53.0534 302.4937 0001364  72.2755 275.5010 15.06356152  1309","RCS_SIZE":"LARGE","EPOCH":"2022-05-13T22:00:00.999936","MEAN_ANOMALY":"275.5010","SEMIMAJOR_AXIS":"6925.483","INCLINATION":"53.0534","COUNTRY_CODE":"US","MEAN_MOTION_DDOT":"0.0000000000000","SITE":"AFETR","PERIOD":"95.595","GP_ID":"203476848","CLASSIFICATION_TYPE":"U","DECAY_DATE":null,"ELEMENT_SET_NO":"999","OBJECT_TYPE":"PAYLOAD","REV_AT_EPOCH":"130","PERIAPSIS":"546.403","MEAN_MOTION":"15.06356152","OBJECT_NAME":"STARLINK-2729","OBJECT_ID":"2021-040C","BSTAR":"0.00341110000000","NORAD_CAT_ID":"48430","ECCENTRICITY":"0.00013640"},{"MEAN_ELEMENT_THEORY":"SGP4","TLE_LINE2":"2 48431  53.0549 297.4884 0001474  75.5856 199.6854 15.06361750  1302","CENTER_NAME":"EARTH","MEAN_MOTION_DOT":"0.00056684","APOAPSIS":"548.352","FILE":"3444395","EPHEMERIS_TYPE":"0","TLE_LINE1":"1 48431U 21040D   22133.91667824  .00056684  00000-0  37978-2 0  9996","ARG_OF_PERICENTER":"75.5856","LAUNCH_DATE":"2021-05-09","TIME_SYSTEM":"UTC","REF_FRAME":"TEME","RA_OF_ASC_NODE":"297.4884","OBJECT_ID":"2021-040D","OBJECT_NAME":"STARLINK-2700","MEAN_MOTION":"15.06361750","PERIAPSIS":"546.310","ECCENTRICITY":"0.00014740","NORAD_CAT_ID":"48431","BSTAR":"0.00379780000000","INCLINATION":"53.0549","SEMIMAJOR_AXIS":"6925.466","MEAN_ANOMALY":"199.6854","EPOCH":"2022-05-13T22:00:00.999936","RCS_SIZE":"LARGE","REV_AT_EPOCH":"130","OBJECT_TYPE":"PAYLOAD","ELEMENT_SET_NO":"999","DECAY_DATE":null,"CLASSIFICATION_TYPE":"U","GP_ID":"203477098","PERIOD":"95.595","SITE":"AFETR","COUNTRY_CODE":"US","MEAN_MOTION_DDOT":"0.0000000000000"},{"APOAPSIS":"548.181","FILE":"3444395","TLE_LINE1":"1 48432U 21040E   22133.91667824  .00035056  00000-0  23628-2 0  9994","ARG_OF_PERICENTER":"94.3904","EPHEMERIS_TYPE":"0","REF_FRAME":"TEME","LAUNCH_DATE":"2021-05-09","TIME_SYSTEM":"UTC","RA_OF_ASC_NODE":"292.4987","MEAN_ELEMENT_THEORY":"SGP4","TLE_LINE2":"2 48432  53.0534 292.4987 0001248  94.3904 128.3232 15.06366408  1302","MEAN_MOTION_DOT":"0.00035056","CENTER_NAME":"EARTH","SEMIMAJOR_AXIS":"6925.452","INCLINATION":"53.0534","EPOCH":"2022-05-13T22:00:00.999936","MEAN_ANOMALY":"128.3232","RCS_SIZE":"LARGE","ELEMENT_SET_NO":"999","OBJECT_TYPE":"PAYLOAD","REV_AT_EPOCH":"130","CLASSIFICATION_TYPE":"U","DECAY_DATE":null,"SITE":"AFETR","PERIOD":"95.594","GP_ID":"203478348","MEAN_MOTION_DDOT":"0.0000000000000","COUNTRY_CODE":"US","OBJECT_ID":"2021-040E","OBJECT_NAME":"STARLINK-2680","MEAN_MOTION":"15.06366408","PERIAPSIS":"546.452","NORAD_CAT_ID":"48432","ECCENTRICITY":"0.00012480","BSTAR":"0.00236280000000"},{"FILE":"3444395","ARG_OF_PERICENTER":"81.3935","TLE_LINE1":"1 48433U 21040F   22133.91667824  .00003926  00000-0  30104-3 0  9994","EPHEMERIS_TYPE":"0","APOAPSIS":"555.661","RA_OF_ASC_NODE":"297.5007","REF_FRAME":"TEME","TIME_SYSTEM":"UTC","LAUNCH_DATE":"2021-05-09","MEAN_ELEMENT_THEORY":"SGP4","MEAN_MOTION_DOT":"0.00003926","CENTER_NAME":"EARTH","TLE_LINE2":"2 48433  53.0545 297.5007 0001335  81.3935   4.8546 15.03948985  1300","RCS_SIZE":"LARGE","SEMIMAJOR_AXIS":"6932.871","INCLINATION":"53.0545","EPOCH":"2022-05-13T22:00:00.999936","MEAN_ANOMALY":"4.8546","SITE":"AFETR","GP_ID":"203478599","PERIOD":"95.748","MEAN_MOTION_DDOT":"0.0000000000000","COUNTRY_CODE":"US","OBJECT_TYPE":"PAYLOAD","ELEMENT_SET_NO":"999","REV_AT_EPOCH":"130","CLASSIFICATION_TYPE":"U","DECAY_DATE":null,"PERIAPSIS":"553.810","OBJECT_NAME":"STARLINK-2699","OBJECT_ID":"2021-040F","MEAN_MOTION":"15.03948985","BSTAR":"0.00030104000000","NORAD_CAT_ID":"48433","ECCENTRICITY":"0.00013350"},{"NORAD_CAT_ID":"48434","ECCENTRICITY":"0.00012790","BSTAR":"0.00308200000000","OBJECT_NAME":"STARLINK-2692","OBJECT_ID":"2021-040G","MEAN_MOTION":"15.03911802","PERIAPSIS":"553.963","ELEMENT_SET_NO":"999","OBJECT_TYPE":"PAYLOAD","REV_AT_EPOCH":"130","CLASSIFICATION_TYPE":"U","DECAY_DATE":null,"SITE":"AFETR","GP_ID":"203477348","PERIOD":"95.750","MEAN_MOTION_DDOT":"0.0000000000000","COUNTRY_CODE":"US","SEMIMAJOR_AXIS":"6932.985","INCLINATION":"53.0534","EPOCH":"2022-05-13T22:00:00.999936","MEAN_ANOMALY":"270.8501","RCS_SIZE":"LARGE","TLE_LINE2":"2 48434  53.0534 302.5876 0001279  86.5345 270.8501 15.03911802  1303","CENTER_NAME":"EARTH","MEAN_MOTION_DOT":"0.00042929","MEAN_ELEMENT_THEORY":"SGP4","REF_FRAME":"TEME","TIME_SYSTEM":"UTC","LAUNCH_DATE":"2021-05-09","RA_OF_ASC_NODE":"302.5876","APOAPSIS":"555.737","FILE":"3444395","ARG_OF_PERICENTER":"86.5345","TLE_LINE1":"1 48434U 21040G   22133.91667824  .00042929  00000-0  30820-2 0  9995","EPHEMERIS_TYPE":"0"},{"CLASSIFICATION_TYPE":"U","DECAY_DATE":null,"OBJECT_TYPE":"PAYLOAD","REV_AT_EPOCH":"5645","ELEMENT_SET_NO":"999","MEAN_MOTION_DDOT":"0.0000000000000","COUNTRY_CODE":"US","SITE":"AFETR","PERIOD":"95.592","GP_ID":"203477598","EPOCH":"2022-05-13T21:30:07.447392","MEAN_ANOMALY":"303.3629","SEMIMAJOR_AXIS":"6925.337","INCLINATION":"53.0558","RCS_SIZE":"LARGE","NORAD_CAT_ID":"48435","ECCENTRICITY":"0.00016620","BSTAR":"0.00013364000000","MEAN_MOTION":"15.06403618","OBJECT_NAME":"STARLINK-2633","OBJECT_ID":"2021-040H","PERIAPSIS":"546.051","REF_FRAME":"TEME","LAUNCH_DATE":"2021-05-09","TIME_SYSTEM":"UTC","RA_OF_ASC_NODE":"312.5731","APOAPSIS":"548.353","TLE_LINE1":"1 48435U 21040H   22133.89591953  .00001710  00000-0  13364-3 0  9990","EPHEMERIS_TYPE":"0","ARG_OF_PERICENTER":"56.7519","FILE":"3444395","TLE_LINE2":"2 48435  53.0558 312.5731 0001662  56.7519 303.3629 15.06403618 56452","MEAN_MOTION_DOT":"0.00001710","CENTER_NAME":"EARTH","MEAN_ELEMENT_THEORY":"SGP4"},{"ECCENTRICITY":"0.00016330","NORAD_CAT_ID":"48436","BSTAR":"-0.00009332000000","MEAN_MOTION":"15.06392288","OBJECT_ID":"2021-040J","OBJECT_NAME":"STARLINK-2639","PERIAPSIS":"546.106","CLASSIFICATION_TYPE":"U","DECAY_DATE":null,"REV_AT_EPOCH":"5668","OBJECT_TYPE":"PAYLOAD","ELEMENT_SET_NO":"999","COUNTRY_CODE":"US","MEAN_MOTION_DDOT":"0.0000000000000","SITE":"AFETR","PERIOD":"95.593","GP_ID":"203452249","EPOCH":"2022-05-13T19:40:41.341152","MEAN_ANOMALY":"283.5102","SEMIMAJOR_AXIS":"6925.372","INCLINATION":"53.0551","RCS_SIZE":"LARGE","TLE_LINE2":"2 48436  53.0551 327.9171 0001633  76.6068 283.5102 15.06392288 56682","CENTER_NAME":"EARTH","MEAN_MOTION_DOT":"-0.00001671","MEAN_ELEMENT_THEORY":"SGP4","REF_FRAME":"TEME","TIME_SYSTEM":"UTC","LAUNCH_DATE":"2021-05-09","RA_OF_ASC_NODE":"327.9171","APOAPSIS":"548.368","TLE_LINE1":"1 48436U 21040J   22133.81992293 -.00001671  00000-0 -93320-4 0  9994","ARG_OF_PERICENTER":"76.6068","EPHEMERIS_TYPE":"0","FILE":"3444198"},{"REF_FRAME":"TEME","LAUNCH_DATE":"2021-05-09","TIME_SYSTEM":"UTC","RA_OF_ASC_NODE":"337.6848","APOAPSIS":"548.374","FILE":"3444198","EPHEMERIS_TYPE":"0","TLE_LINE1":"1 48437U 21040K   22133.87059911  .00000175  00000-0  30638-4 0  9991","ARG_OF_PERICENTER":"59.9079","TLE_LINE2":"2 48437  53.0527 337.6848 0001677  59.9079 300.2076 15.06400317 57387","MEAN_MOTION_DOT":"0.00000175","CENTER_NAME":"EARTH","MEAN_ELEMENT_THEORY":"SGP4","OBJECT_TYPE":"PAYLOAD","ELEMENT_SET_NO":"999","REV_AT_EPOCH":"5738","CLASSIFICATION_TYPE":"U","DECAY_DATE":null,"SITE":"AFETR","PERIOD":"95.592","GP_ID":"203452746","MEAN_MOTION_DDOT":"0.0000000000000","COUNTRY_CODE":"US","SEMIMAJOR_AXIS":"6925.348","INCLINATION":"53.0527","EPOCH":"2022-05-13T20:53:39.763104","MEAN_ANOMALY":"300.2076","RCS_SIZE":"LARGE","NORAD_CAT_ID":"48437","ECCENTRICITY":"0.00016770","BSTAR":"0.00003063800000","OBJECT_ID":"2021-040K","OBJECT_NAME":"STARLINK-2642","MEAN_MOTION":"15.06400317","PERIAPSIS":"546.051"},{"RA_OF_ASC_NODE":"327.9386","TIME_SYSTEM":"UTC","LAUNCH_DATE":"2021-05-09","REF_FRAME":"TEME","FILE":"3444395","ARG_OF_PERICENTER":"47.5440","TLE_LINE1":"1 48438U 21040L   22133.81623588  .00000464  00000-0  50025-4 0  9996","EPHEMERIS_TYPE":"0","APOAPSIS":"548.406","CENTER_NAME":"EARTH","MEAN_MOTION_DOT":"0.00000464","TLE_LINE2":"2 48438  53.0548 327.9386 0001696  47.5440 312.5692 15.06394149 56234","MEAN_ELEMENT_THEORY":"SGP4","GP_ID":"203476849","PERIOD":"95.593","SITE":"AFETR","MEAN_MOTION_DDOT":"0.0000000000000","COUNTRY_CODE":"US","OBJECT_TYPE":"PAYLOAD","ELEMENT_SET_NO":"999","REV_AT_EPOCH":"5623","DECAY_DATE":null,"CLASSIFICATION_TYPE":"U","RCS_SIZE":"LARGE","INCLINATION":"53.0548","SEMIMAJOR_AXIS":"6925.366","MEAN_ANOMALY":"312.5692","EPOCH":"2022-05-13T19:35:22.780032","BSTAR":"0.00005002500000","NORAD_CAT_ID":"48438","ECCENTRICITY":"0.00016960","PERIAPSIS":"546.057","OBJECT_ID":"2021-040L","OBJECT_NAME":"STARLINK-2640","MEAN_MOTION":"15.06394149"},{"MEAN_MOTION_DOT":"-0.00000270","CENTER_NAME":"EARTH","TLE_LINE2":"2 48439  53.0537 327.9653 0001476  77.6000 282.5154 15.06402429 56232","MEAN_ELEMENT_THEORY":"SGP4","RA_OF_ASC_NODE":"327.9653","TIME_SYSTEM":"UTC","LAUNCH_DATE":"2021-05-09","REF_FRAME":"TEME","FILE":"3444395","EPHEMERIS_TYPE":"0","TLE_LINE1":"1 48439U 21040M   22133.81254848 -.00000270  00000-0  77824-6 0  9990","ARG_OF_PERICENTER":"77.6000","APOAPSIS":"548.228","BSTAR":"0.00000077824000","NORAD_CAT_ID":"48439","ECCENTRICITY":"0.00014760","PERIAPSIS":"546.184","OBJECT_ID":"2021-040M","OBJECT_NAME":"STARLINK-2583","MEAN_MOTION":"15.06402429","GP_ID":"203477099","PERIOD":"95.592","SITE":"AFETR","COUNTRY_CODE":"US","MEAN_MOTION_DDOT":"0.0000000000000","OBJECT_TYPE":"PAYLOAD","REV_AT_EPOCH":"5623","ELEMENT_SET_NO":"999","DECAY_DATE":null,"CLASSIFICATION_TYPE":"U","RCS_SIZE":"LARGE","INCLINATION":"53.0537","SEMIMAJOR_AXIS":"6925.341","MEAN_ANOMALY":"282.5154","EPOCH":"2022-05-13T19:30:04.188672"}];
